#cP2023 11 24  0  0  0.00000000      96 ORBIT IGS20 HLM  IGS
## 2289 432000.00000000   900.00000000 60272 0.0000000000000
+   32   G01G02G03G04G05G06G07G08G09G10G11G12G13G14G15G16G17
+        G18G19G20G21G22G23G24G25G26G27G28G29G30G31G32  0  0
+          0  0  0  0  0  0  0  0  0  0  0  0  0  0  0  0  0
+          0  0  0  0  0  0  0  0  0  0  0  0  0  0  0  0  0
+          0  0  0  0  0  0  0  0  0  0  0  0  0  0  0  0  0
++         3  2  2  2  2  2  2  2  2  2  2  2  2  3  2  2  2
++         2  2  2  2  2  2  2  2  2  2  2  2  2  2  2  0  0
++         0  0  0  0  0  0  0  0  0  0  0  0  0  0  0  0  0
++         0  0  0  0  0  0  0  0  0  0  0  0  0  0  0  0  0
++         0  0  0  0  0  0  0  0  0  0  0  0  0  0  0  0  0
%c G  cc GPS ccc cccc cccc cccc cccc ccccc ccccc ccccc ccccc
%c cc cc ccc ccc cccc cccc cccc cccc ccccc ccccc ccccc ccccc
%f  1.2500000  1.025000000  0.00000000000  0.000000000000000
%f  0.0000000  0.000000000  0.00000000000  0.000000000000000
%i    0    0    0    0      0      0      0      0         0
%i    0    0    0    0      0      0      0      0         0
/* RAPID ORBIT COMBINATION FROM WEIGHTED AVERAGE OF:        
/* cod emr esa gfz grg jgx jpl ngs sio usn whu              
/* REFERENCED TO IGS TIME (IGST) AND TO WEIGHTED MEAN POLE: 
/* PCV:IGS20      OL/AL:FES2014b NONE     Y  ORB:CMB CLK:CMB
*  2023 11 24 20 15  0.00000000
PG01 -10839.537628 -13650.639043 -20494.379460    163.301656 10  5  6 109       
PG02  -4410.091060 -14413.396049 -21380.874090   -524.571955  4  6  5 102       
PG03 -11741.600228 -23769.389090  -2530.643552      8.151003  8  5  8 102       
PG04  -3995.909640 -18292.187609  18793.587557    221.866098  7  5  7 106       
PG05   2769.990535  22189.159432  14084.058678   -151.638709  8  8  9 114       
PG06 -23575.404102   6622.224794  10483.157062    497.023017  4  5  6  98       
PG07 -24537.383525  -6504.850248   9075.497016      4.899353  6  6  5 103       
PG08   2241.444181 -23081.399986 -12645.240458   -153.701597  6  6  6  89       
PG09 -12839.994533  -8300.051780  21629.500076      6.853482  5  5  5 109       
PG10  16402.706546    631.151466 -20763.885055    -62.684926  5  4  2 111       
PG11 -14388.754438  12228.451680  18679.076457   -473.972906  2  5  5  98       
PG12   9181.712128  24718.754545  -3781.506928   -450.524290  8  2  9 134       
PG13 -12580.840762  22581.965351  -5783.960853    598.787664  4  6  3  94       
PG14 -17956.398488  -4257.703555 -19141.066650    252.527617  8  9  8 119       
PG15   1104.796223  23317.968071 -12949.714843    100.386501  7  7  3 110       
PG16   4512.677827 -18995.670377  17472.432075   -416.243281  8  6  4 115       
PG17 -18605.958714   6596.876903 -17395.872948    722.882728  4  6  2 120       
PG18  25184.104253   5217.324049   7020.130788   -488.403265  7  5  4 109       
PG19 -19609.925632  13539.838270 -11544.667218    403.432228  5  7    101       
PG20  -7095.722599  14801.196324  20963.163774    399.959211  5  5  7 104       
PG21  -1303.499813 -14892.535793 -21436.415405    143.383604  6  5  4 107       
PG22 -14779.341781   3399.866324 -21338.917752     77.887252  3  5  8 116       
PG23  18849.611729  12818.759579 -13773.851746    104.506386  5  8  7 104       
PG24   5878.297954  15310.649667 -21339.318466   -378.858379  6  6  6 103       
PG25  17212.816002  19056.559576   6986.664612    478.795317  5  7  5 122       
PG26  11018.293534 -11551.083784  21060.760602    214.297942  6  6  2 117       
PG27  12530.457517 -23148.799390   -795.091024    -74.431709  6  7  5  96       
PG28  24379.892231  -6579.244227   8212.231214    -53.783865  6  4  6  97       
PG29  11438.387303   9644.639194  21897.229665   -610.139456  4  5  6  93       
PG30 -26653.143316    870.538308  -1328.288827   -464.731594  4  6  4 100       
PG31  19390.220128 -10257.693020  15056.464321   -226.044893  4  6  5 111       
PG32  18465.545789 -10752.907716 -15453.542442   -589.469745  6  6  5 107       
*  2023 11 24 20 30  0.00000000
PG01  -8524.420016 -13720.202711 -21504.436595    163.301899 11  5  5 101       
PG02  -1866.027876 -14715.693708 -21526.249944   -524.567320  4  6  5 101       
PG03 -11358.121752 -23497.057833  -5375.072463      8.174484  8  5  8  97       
PG04  -2837.705705 -20002.975080  17180.311878    221.875370  7  5  7 103       
PG05   1624.053950  20841.122404  16152.718720   -151.640016  8  7  8 120       
PG06 -24611.593359   6495.851158   7836.047022    497.013514  5  5  6  88       
PG07 -23439.216472  -6748.671743  11548.432367      4.890271  6  6  5  94       
PG08   3051.061987 -24143.652574 -10209.372622   -153.703511  6  6  6  83       
PG09 -11697.653697 -10498.805819  21315.868002      6.863773  5  4  5 111       
PG10  17584.670578   2648.441356 -19645.689815    -62.686516  6  4  2 112       
PG11 -16426.046894  12056.442211  17031.475979   -473.987228  2  5  5 106       
PG12   8716.827569  24333.251554  -6558.804020   -450.528154  8     9 144       
PG13 -13056.219435  22829.352748  -2955.228160    598.791201  3  6  2  81       
PG14 -18898.047360  -6150.561921 -17681.105759    252.537201  9  9  8 119       
PG15    404.524779  24441.553572 -10599.039807    100.389677  7  6  3 107       
PG16   5635.422436 -17142.256408  19010.270724   -416.237361  8  6  3 111       
PG17 -17585.555913   4695.432979 -18953.641344    722.882591  4  6  2 116       
PG18  24239.358409   5418.528683   9676.433423   -488.412872  7  6  4 121       
PG19 -18970.435131  12235.287695 -13901.137054    403.436873  5  7  2 100       
PG20  -8742.895140  13028.468485  21495.659205    399.957258  5  5  6  82       
PG21   1238.697372 -15145.519349 -21184.050278    143.382978  6  5  3 105       
PG22 -15851.716318   1131.740609 -20788.982496     77.881016  3  5  8 120       
PG23  19509.481606  14102.346643 -11416.041962    104.512199  6  8  6 111       
PG24   3518.672835  15622.785463 -21598.346931   -378.866228  6  6  6  96       
PG25  17365.308150  19763.602759   4261.472029    478.796936  6  8  5 120       
PG26  12500.443838  -9586.064784  21250.152827    214.295403  6  6  2 117       
PG27  12727.938275 -22928.370644   2092.542763    -74.436361  6  7  5  89       
PG28  25181.983073  -6391.230715   5501.516368    -53.791892  6  4  6  79       
PG29  10076.121842  11731.324164  21536.874357   -610.139159  5  5  6  88       
PG30 -26667.171979    564.035090   1460.420716   -464.727926  4  6  4  94       
PG31  21010.302093 -10086.971009  12908.699449   -226.045152  4  6  5 111       
PG32  17744.248135  -8969.970552 -17320.940307   -589.473551  6  6  5 110       
*  2023 11 24 20 45  0.00000000
PG01  -6122.975950 -13931.114685 -22158.086975    163.302113 11  5  4 111       
PG02    655.392075 -15148.377872 -21283.237816   -524.562424  5  6  4 104       
PG03 -10778.305359 -22988.103508  -8127.890623      8.197963  9  6  7  98       
PG04  -1859.614110 -21594.025932  15270.064924    221.884635  7  5  6 100       
PG05    272.182016  19381.998662  17938.898600   -151.641165  7  6  8 112       
PG06 -25347.442100   6402.866615   5055.176236    497.003981  6  6  6  85       
PG07 -22094.043108  -7071.259055  13831.891951      4.881254  7  6  4  94       
PG08   3695.329876 -24981.222748  -7594.410893   -153.704797  6  6  6 100       
PG09 -10691.664611 -12701.496624  20632.312994      6.874024  5  4  5 106       
PG10  18789.820690   4474.321833 -18187.079492    -62.688265  6  4  2 118       
PG11 -18266.974572  11983.374672  15090.665509   -474.001574  2  5  4  92       
PG12   8074.760577  23710.853520  -9224.579236   -450.531540  9  2  9  86       
PG13 -13344.181980  22827.445424    -75.101417    598.794980  3  6  2  94       
PG14 -19832.390249  -7841.106949 -15918.254228    252.546792 10  9  8 123       
PG15   -168.193230  25336.710301  -8067.695591    100.393254  7  6  3 110       
PG16   6929.938936 -15214.168179  20207.773845   -416.231115  7  6  3 108       
PG17 -16590.805256   2598.253333 -20174.660932    722.882031  5  6  3 116       
PG18  23016.957038   5693.106646  12167.978336   -488.422421  8  6  5 112       
PG19 -18271.594991  10683.381646 -16017.059210    403.441874  5  7  3 100       
PG20 -10507.202560  11312.888969  21660.468537    399.956292  5  4  6  74       
PG21   3722.470810 -15518.121368 -20546.335330    143.382214  6  5  3 108       
PG22 -16996.327075  -1006.187781 -19865.040112     77.874775  3  5  9 120       
PG23  20071.816994  15125.519466  -8863.559210    104.518087  7  8  6 117       
PG24   1164.535246  16052.475303 -21499.108806   -378.874083  6  7  5 104       
PG25  17371.997555  20208.138724   1463.651477    478.798576  7  8  6 108       
PG26  14071.782039  -7695.773602  21069.417821    214.292897  6  5  2 117       
PG27  12802.496261 -22417.879906   4943.091063    -74.440994  6  7  5  92       
PG28  25682.801457  -6206.156536   2696.071119    -53.800015  7  4  6 102       
PG29   8858.115847  13834.898220  20804.007111   -610.139093  5  5  6  86       
PG30 -26386.116124    232.844765   4224.430329   -464.724294  5  6  3  97       
PG31  22380.093620  -9983.918698  10540.793077   -226.045652  3  6  5 117       
PG32  17035.270038  -6973.695557 -18883.765431   -589.477361  6  6  5 105       
EOF
